HAWK-11C                
1 62381U 24247E   26068.51221537  .00009223  00000+0  33290-3 0  9992
2 62381  45.0045 114.8762 0005900 329.7040  30.3502 15.28848020 67743
STARLINK-36064          
1 66899U 25283X   26068.11223227  .00043872  00000+0  14852-2 0  9995
2 66899  53.1607  27.0019 0000904  74.5347 285.5753 15.30188289 15752
