[{"OBJECT_NAME":"HAWK-11C","OBJECT_ID":"2024-247E","EPOCH":"2026-03-09T12:17:35.407968","MEAN_MOTION":15.2884802,"ECCENTRICITY":0.00059001,"INCLINATION":45.0045,"RA_OF_ASC_NODE":114.8762,"ARG_OF_PERICENTER":329.704,"MEAN_ANOMALY":30.3502,"EPHEMERIS_TYPE":0,"CLASSIFICATION_TYPE":"U","NORAD_CAT_ID":62381,"ELEMENT_SET_NO":999,"REV_AT_EPOCH":6774,"BSTAR":0.00033290115,"MEAN_MOTION_DOT":9.223e-5,"MEAN_MOTION_DDOT":0},{"OBJECT_NAME":"STARLINK-36064","OBJECT_ID":"2025-283X","EPOCH":"2026-03-09T02:41:36.868128","MEAN_MOTION":15.30188289,"ECCENTRICITY":9.045e-5,"INCLINATION":53.1607,"RA_OF_ASC_NODE":27.0019,"ARG_OF_PERICENTER":74.5347,"MEAN_ANOMALY":285.5753,"EPHEMERIS_TYPE":0,"CLASSIFICATION_TYPE":"U","NORAD_CAT_ID":66899,"ELEMENT_SET_NO":999,"REV_AT_EPOCH":1575,"BSTAR":0.001485195,"MEAN_MOTION_DOT":0.00043872,"MEAN_MOTION_DDOT":0}]
